{"type": "Feature", "properties": {"name": "Austria"}, "geometry": {"type": "Polygon", "coordinates": [[[10.4712361531791, 46.8713540388734], [10.4882091718807, 46.9359910853914], [10.430000206926, 46.9841642300083], [10.3907633445856, 47.0025641839103], [10.3506271040321, 46.9912450941925], [10.3233270776754, 46.9555541121816], [10.3133271318829, 46.9336091161405], [10.227500131164, 46.8769360511278], [10.1608361728144, 46.8550001075422], [10.141809084915, 46.8513450948333], [10.1315271718991, 46.850409171522], [10.1094450479215, 46.8502732170523], [10.0588912751584, 46.8663911139894], [9.93500020799468, 46.9127732135306], [9.87778215163598, 46.9404091865676], [9.87583604135131, 46.9681821199029], [9.89160022197353, 47.000336106402], [9.87291813320974, 47.0230450291008], [9.71944515036245, 47.0502821911835], [9.6325001713949, 47.0566641722791], [9.59863610900493, 47.0638360639321], [9.60694508964605, 47.0680540052599], [9.63360909718801, 47.0971450766922], [9.63389123204962, 47.1305540017383], [9.6227731403705, 47.1505540609612], [9.56639126267498, 47.2438910793081], [9.53357326180435, 47.2745450404109], [9.5400001699013, 47.2841641125218], [9.61096320640144, 47.3622271239459], [9.63736318399265, 47.3695820763647], [9.67034513489, 47.3906910613808], [9.6496540715674, 47.4586091200869], [9.59660014471797, 47.4694360244488], [9.55980023691376, 47.5020910811212], [9.56672720935524, 47.5404540462342], [9.57791822359212, 47.5374181208955], [9.60877318273379, 47.5295181771305], [9.65150915438346, 47.5295181771305], [9.69252717115347, 47.5295181771305], [9.73279115191184, 47.5411180606056], [9.74624511237437, 47.5658270730455], [9.77541815881995, 47.591245026858], [9.81097318636114, 47.594164108466], [9.95500009957931, 47.5397181151334], [10.0430540043402, 47.4952821258768], [10.2317361774026, 47.3737450324075], [10.211663195622, 47.322491203089], [10.1733361050549, 47.2747180428929], [10.2288911918189, 47.2760360133519], [10.2744451593241, 47.2888911706499], [10.336663188579, 47.3127001343244], [10.4297180720644, 47.3961091236085], [10.4737450244447, 47.4376360895408], [10.4661822008263, 47.4829090956507], [10.436391240477, 47.5291641255395], [10.4336822093631, 47.5804821602364], [10.4818002010568, 47.5865181363681], [10.5694450689415, 47.5402731647631], [10.6908361496571, 47.5538910752521], [10.9094450699008, 47.5180540804875], [10.9766632396899, 47.4002732531176], [11.0083361049456, 47.3958271563849], [11.0286090789364, 47.3952731125835], [11.1040270969868, 47.396527045302], [11.2963912724866, 47.4288910822953], [11.457500169148, 47.5122180965662], [11.5052822141615, 47.5091642339548], [11.554445093908, 47.5155450415839], [11.5798632153585, 47.5240910624474], [11.6830541667442, 47.584718038837], [11.920000176616, 47.6141641676888], [12.0063911117822, 47.6244450748765], [12.0600002558995, 47.6205540277734], [12.1111092459307, 47.6147180438521], [12.1413912181695, 47.6111091316109], [12.2015540047599, 47.6129912041553], [12.2073180719516, 47.6333731428878], [12.2011090933381, 47.657491063514], [12.4550001263549, 47.6677731441682], [12.5144450867554, 47.6332539522242], [12.566663337856, 47.6419360951957], [12.5763912070705, 47.6441641727039], [12.6034002137483, 47.6722911576304], [12.6658361724861, 47.6850001345366], [12.7369450541022, 47.6827091927544], [12.827845117913, 47.6212450318731], [12.805973212068, 47.614853998322], [12.7881911720696, 47.5835360228479], [12.8066632103393, 47.5547180338219], [12.957873246961, 47.4770181264445], [13.0125001217647, 47.4697910818684], [13.0533360835971, 47.4975641828418], [13.100136104832, 47.6429181189744], [13.0775001046912, 47.687354108231], [13.0583360564935, 47.7061091195525], [13.0230541113584, 47.7241642419572], [12.9937451104431, 47.7141641285267], [12.9139540858557, 47.725000085344], [12.9441633031747, 47.7887451297237], [12.9705540606724, 47.8105540036568], [13.0088912095234, 47.8541642078101], [12.9666633488455, 47.9069450522534], [12.9188911944779, 47.9577732485274], [12.8653450822725, 47.99460014606], [12.8570451540869, 48.0119361011701], [12.8375002322079, 48.0300001083921], [12.7991632509949, 48.0545822188175], [12.7662451702002, 48.0822180242163], [12.7597181821792, 48.1217271307726], [12.8712451039342, 48.2029090483767], [13.0177731770671, 48.2594361006357], [13.1544451378663, 48.2922180593227], [13.2580540109456, 48.2988821752799], [13.2852732357554, 48.305273208831], [13.3130540480798, 48.3158270307867], [13.3350002175873, 48.3286090978889], [13.3950002276177, 48.3661001774309], [13.4218732798254, 48.3910360041714], [13.4379180865667, 48.4294360172964], [13.457500224096, 48.5155540376943], [13.4432271840528, 48.5602361196288], [13.5186091599195, 48.5845821956602], [13.6027731910439, 48.5680540883804], [13.6547181921002, 48.5516641148653], [13.6769451553648, 48.5322911896399], [13.7260002438361, 48.5155910857064], [13.8037450782145, 48.5826360853754], [13.8254181653159, 48.6311091344887], [13.8147181629682, 48.738054005041], [13.8336091287599, 48.7736090325822], [13.858054111249, 48.7705539965042], [13.8836091929978, 48.7636090867897], [13.9986092401624, 48.7140271118835], [14.0513912580719, 48.6697911148371], [14.184163286951, 48.5961091565774], [14.2783270962296, 48.5825001309055], [14.3902732807827, 48.592500076698], [14.4463911285274, 48.6188911694719], [14.5055541217043, 48.628327013179], [14.6119451160932, 48.6284641411152], [14.6544450533489, 48.6084731343479], [14.7002821615442, 48.5813821526569], [14.7054180889102, 48.5851360718235], [14.7194450362755, 48.6040181527977], [14.7166632502418, 48.6543001842593], [14.727218078026, 48.6934641240418], [14.8237450810923, 48.7850642444079], [14.8494451697664, 48.7863822148669], [14.885554073471, 48.7827731349877], [14.9588912002333, 48.7947180175981], [14.9850001581456, 48.9391641936145], [14.9795822635559, 48.9799270652512], [15.0041632005149, 49.0113912211172], [15.0286091888324, 49.0187450000696], [15.0655541035621, 49.0147181661349], [15.1566632120389, 48.9997180798082], [15.3013911876408, 48.987782082015], [15.3590271656928, 48.9847181611197], [15.3925001284794, 48.973609121896], [15.4516632892945, 48.9511090762252], [15.5144450853584, 48.9199910929612], [15.5466632772362, 48.9122180512107], [15.564436097141, 48.9091641885994], [15.585000258449, 48.8991642428069], [15.6859731906101, 48.8640180845038], [15.7463911223341, 48.8586090747316], [15.8494271761486, 48.8597000632519], [15.9641631933625, 48.8047181310287], [16.0216632169447, 48.7772181124616], [16.0605540743209, 48.7602732569548], [16.0811091831735, 48.7547180667905], [16.1033361464382, 48.750000061118], [16.3330541059056, 48.7330540321449], [16.3821541213781, 48.7360361456649], [16.4129822584292, 48.7518732488451], [16.4308271627017, 48.7822180853578], [16.4582633111663, 48.8112451190497], [16.5405541545637, 48.8123540448428], [16.6588181148339, 48.7852731214356], [16.7116633322936, 48.7463820964213], [16.7855541675812, 48.7198540433492], [16.8329181232631, 48.7162451311079], [16.871936050292, 48.7254821560712], [16.8925002116, 48.7258271552067], [16.9179181654125, 48.7031911550659], [16.9461822782753, 48.6190641719539], [16.943336119225, 48.5733271436829], [16.9333271209771, 48.5327731490739], [16.9075001302887, 48.5069449849187], [16.8656911971326, 48.4687451316422], [16.8558272058102, 48.4494360765191], [16.8447181665866, 48.3619730959339], [16.9238912772701, 48.2820821590604], [16.9497181003206, 48.2780450992037], [16.952363261332, 48.2502731716969], [16.9752731820694, 48.1883270513818], [16.9980181469518, 48.1697001155411], [17.0335451789364, 48.1452641855074], [17.0691451334787, 48.1352642397149], [17.0811091268285, 48.0883361429992], [17.1166633161793, 48.0386091611676], [17.1663822513841, 48.0125002032553], [17.1469451207801, 48.0000001033768], [17.1080540957658, 47.9713821065611], [17.060554017976, 47.8769359947829], [17.0544451192865, 47.8472181246293], [17.0568002664473, 47.7945821194733], [17.0686091945881, 47.7683271488074], [17.0716632248376, 47.7286091652234], [17.053891243123, 47.7094451170257], [16.9552732904846, 47.6947181131053], [16.9108270753063, 47.6908270660023], [16.8244450249575, 47.683882156288], [16.7641632153416, 47.6854091714126], [16.7358360705668, 47.7020821179796], [16.7234732662627, 47.726454010273], [16.6355541425054, 47.7602731456616], [16.6122180858095, 47.7591642198685], [16.5586091093302, 47.7563820985588], [16.4505541395182, 47.6980541105784], [16.43263614505, 47.6663820835132], [16.4930540767739, 47.6466641591521], [16.5966632851291, 47.6288911716092], [16.6325732024517, 47.6344361358514], [16.666391164374, 47.6144360766286], [16.7138912421639, 47.5438820770043], [16.705273304571, 47.5211091165654], [16.6552001501371, 47.4581539827432], [16.5925001614483, 47.4252821700541], [16.4738912020426, 47.4187451237493], [16.4520092379136, 47.4128451020877], [16.4563911292678, 47.3688910722651], [16.4913912748171, 47.2819360350136], [16.4743002389186, 47.2599912066105], [16.444718155597, 47.2444360706542], [16.4209001394669, 47.2104090640662], [16.4593001525919, 47.1472911536838], [16.5055540090142, 47.1150002068863], [16.5048633401906, 47.0067641879652], [16.4450001228206, 47.0047181653943], [16.4125001313573, 47.0077732014723], [16.3469450988009, 47.0099912206968], [16.3027733071332, 47.0113821137135], [16.2766633433926, 46.9880541036448], [16.2536090862823, 46.9583270133978], [16.137918202656, 46.878891213868], [16.1118001922884, 46.8697180590072], [16.0093091298198, 46.8354910602088], [15.9883272144563, 46.8315911282883], [15.9879181775802, 46.7551361011742], [15.8590271375204, 46.7231911593408], [15.8327822251382, 46.7222180203793], [15.8066632089423, 46.7186091081381], [15.6025001635856, 46.6866641663046], [15.4061091541511, 46.6525001994184], [15.1394451064878, 46.6572180374529], [15.1029181134517, 46.6566641612895], [15.0744092490156, 46.6485731101316], [15.0551360684383, 46.6520821100867], [14.8675001245331, 46.6133270395424], [14.8337450268846, 46.5706911478167], [14.8250001872773, 46.5413821469014], [14.8131912591366, 46.5113821418861], [14.5450001963484, 46.4074911339453], [14.4780541031372, 46.4194450690114], [14.1536821606922, 46.4426361187819], [14.1288911732391, 46.4630540996982], [14.1158361913686, 46.4788821504229], [14.0822182216568, 46.4891642310769], [13.9369450870709, 46.5158270651526], [13.8455540113706, 46.5200000794792], [13.7761091051776, 46.5183270516006], [13.7186540085966, 46.5266090425134], [13.6111091614131, 46.5480450893921], [13.5550001984857, 46.5562451052917], [13.4288911120976, 46.5630450080808], [13.2575001347821, 46.561944967105], [12.8255540084926, 46.6312450340106], [12.7783360655645, 46.6479181482156], [12.757773245361, 46.6497180781085], [12.7479271913112, 46.6444911232737], [12.7356270836432, 46.6413180699988], [12.6925001800282, 46.6597180239008], [12.5902731475103, 46.658882180514], [12.554445037563, 46.6616641341857], [12.4861732625418, 46.6823642499636], [12.4405540838297, 46.6908271223475], [12.4043001731999, 46.7055539586298], [12.3837450643472, 46.7211090945862], [12.3016632656156, 46.8411091146468], [12.2322181917846, 46.8888821072048], [12.1855541250197, 46.9079180799217], [12.1602732991436, 46.9280540936144], [12.1361091104117, 46.9669451186287], [12.1330181997881, 47.0125641297028], [12.1945822729553, 47.0329821106191], [12.2238912738708, 47.0630449799082], [12.2308361835851, 47.0722181347692], [12.227500186112, 47.0841641908461], [12.1861091746496, 47.0945822259702], [12.1401270595291, 47.0848090944783], [12.0752821418118, 47.059436067667], [11.761245086011, 46.9781911181507], [11.7311091265258, 46.9788821222504], [11.7101360959797, 46.9963821950251], [11.6219450632827, 47.0127731743685], [11.4838912619219, 47.0141642350234], [11.177154005617, 46.9673539878669], [11.1180540443521, 46.9299911514437], [11.1005541392155, 46.9154091544486], [11.0970821872725, 46.8915911383187], [11.0713911510538, 46.8234642025849], [11.0168001507957, 46.7733270104106], [10.8877822087214, 46.7711091588241], [10.8341633415963, 46.7869450885376], [10.7916632367026, 46.8013820786073], [10.7632633370081, 46.8305539515866], [10.6801361473097, 46.8738181507759], [10.6469451517466, 46.8704181155624], [10.5997181563629, 46.8577731763966], [10.5636090850203, 46.8488821563974], [10.4977732587067, 46.8552731899485], [10.476109224061, 46.8656912250723], [10.4712361531791, 46.8713540388734]]]}}